{"type": "FeatureCollection", "features": [ {"type": "Feature", "properties": {"norad_id": 66325, "name": "STARLINK-35504", "group": "last-30-days", "lat": -28.89767228484663, "lon": 1.5844244470481554, "alt_km": 444.0524260481543, "timestamp": "2025-12-03T15:48:01.917215+00:00", "meta": {"OBJECT_NAME": "STARLINK-35504", "OBJECT_ID": "2025-253G", "EPOCH": "2025-12-03T08:00:01.999872", "MEAN_MOTION": 15.42802606, "ECCENTRICITY": 0.0001424, "INCLINATION": 43.0003, "RA_OF_ASC_NODE": 39.7844, "ARG_OF_PERICENTER": 282.5156, "MEAN_ANOMALY": 26.0928, "EPHEMERIS_TYPE": 0, "CLASSIFICATION_TYPE": "U", "NORAD_CAT_ID": 66325, "ELEMENT_SET_NO": 999, "REV_AT_EPOCH": 541, "BSTAR": -0.054643034, "MEAN_MOTION_DOT": -0.0219949, "MEAN_MOTION_DDOT": 0}, "tle": {"line1": "1 66325U 25253G   25337.33335648 -.02199490  00000+0 -54643-1 0  9992", "line2": "2 66325  43.0003  39.7844 0001424 282.5156  26.0928 15.42802606  5410"}}, "geometry": {"type": "Point", "coordinates": [1.5844244470481554, -28.89767228484663]}}, {"type": "Feature", "properties": {"norad_id": 66326, "name": "STARLINK-35479", "group": "last-30-days", "lat": -3.1218197635436566, "lon": 34.44925303684502, "alt_km": 414.7346476190678, "timestamp": "2025-12-03T15:48:01.917230+00:00", "meta": {"OBJECT_NAME": "STARLINK-35479", "OBJECT_ID": "2025-253H", "EPOCH": "2025-12-03T04:59:56.881536", "MEAN_MOTION": 15.50609513, "ECCENTRICITY": 0.000126, "INCLINATION": 42.9994, "RA_OF_ASC_NODE": 40.4382, "ARG_OF_PERICENTER": 265.1052, "MEAN_ANOMALY": 94.9665, "EPHEMERIS_TYPE": 0, "CLASSIFICATION_TYPE": "U", "NORAD_CAT_ID": 66326, "ELEMENT_SET_NO": 999, "REV_AT_EPOCH": 545, "BSTAR": 0.0021978081, "MEAN_MOTION_DOT": 0.00130913, "MEAN_MOTION_DDOT": 0}, "tle": {"line1": "1 66326U 25253H   25337.20829724  .00130913  00000+0  21978-2 0  9999", "line2": "2 66326  42.9994  40.4382 0001260 265.1052  94.9665 15.50609513  5451"}}, "geometry": {"type": "Point", "coordinates": [34.44925303684502, -3.1218197635436566]}}, {"type": "Feature", "properties": {"norad_id": 66327, "name": "STARLINK-35507", "group": "last-30-days", "lat": -10.976365781198963, "lon": 25.824172863213388, "alt_km": 416.01041380778497, "timestamp": "2025-12-03T15:48:01.917242+00:00", "meta": {"OBJECT_NAME": "STARLINK-35507", "OBJECT_ID": "2025-253J", "EPOCH": "2025-12-03T08:00:01.999872", "MEAN_MOTION": 15.50641745, "ECCENTRICITY": 0.00014718, "INCLINATION": 43.0006, "RA_OF_ASC_NODE": 39.7386, "ARG_OF_PERICENTER": 263.2374, "MEAN_ANOMALY": 64.2491, "EPHEMERIS_TYPE": 0, "CLASSIFICATION_TYPE": "U", "NORAD_CAT_ID": 66327, "ELEMENT_SET_NO": 999, "REV_AT_EPOCH": 551, "BSTAR": -0.002530959, "MEAN_MOTION_DOT": -0.00146406, "MEAN_MOTION_DDOT": 0}, "tle": {"line1": "1 66327U 25253J   25337.33335648 -.00146406  00000+0 -25310-2 0  9991", "line2": "2 66327  43.0006  39.7386 0001471 263.2374  64.2491 15.50641745  5510"}}, "geometry": {"type": "Point", "coordinates": [25.824172863213388, -10.976365781198963]}}, {"type": "Feature", "properties": {"norad_id": 66328, "name": "STARLINK-35460", "group": "last-30-days", "lat": 2.1714548716840483, "lon": 40.11742699237323, "alt_km": 414.9698940832641, "timestamp": "2025-12-03T15:48:01.917253+00:00", "meta": {"OBJECT_NAME": "STARLINK-35460", "OBJECT_ID": "2025-253K", "EPOCH": "2025-12-03T04:58:05.881728", "MEAN_MOTION": 15.5097752, "ECCENTRICITY": 0.00082708, "INCLINATION": 42.9967, "RA_OF_ASC_NODE": 40.4277, "ARG_OF_PERICENTER": 250.2272, "MEAN_ANOMALY": 109.7696, "EPHEMERIS_TYPE": 0, "CLASSIFICATION_TYPE": "U", "NORAD_CAT_ID": 66328, "ELEMENT_SET_NO": 999, "REV_AT_EPOCH": 545, "BSTAR": 0.0018700739, "MEAN_MOTION_DOT": 0.00112679, "MEAN_MOTION_DDOT": 0}, "tle": {"line1": "1 66328U 25253K   25337.20701252  .00112679  00000+0  18701-2 0  9995", "line2": "2 66328  42.9967  40.4277 0008270 250.2272 109.7696 15.50977520  5458"}}, "geometry": {"type": "Point", "coordinates": [40.11742699237323, 2.1714548716840483]}}, {"type": "Feature", "properties": {"norad_id": 66329, "name": "STARLINK-35505", "group": "last-30-days", "lat": -11.599344120442153, "lon": 25.11583320290921, "alt_km": 414.0724302046274, "timestamp": "2025-12-03T15:48:01.917265+00:00", "meta": {"OBJECT_NAME": "STARLINK-35505", "OBJECT_ID": "2025-253L", "EPOCH": "2025-12-02T21:19:39.072288", "MEAN_MOTION": 15.50727196, "ECCENTRICITY": 0.00040071, "INCLINATION": 42.9944, "RA_OF_ASC_NODE": 42.3497, "ARG_OF_PERICENTER": 64.2756, "MEAN_ANOMALY": 295.8518, "EPHEMERIS_TYPE": 0, "CLASSIFICATION_TYPE": "U", "NORAD_CAT_ID": 66329, "ELEMENT_SET_NO": 999, "REV_AT_EPOCH": 540, "BSTAR": 0.005542325, "MEAN_MOTION_DOT": 0.00341195, "MEAN_MOTION_DDOT": 0}, "tle": {"line1": "1 66329U 25253L   25336.88864667  .00341195  00000+0  55423-2 0  9998", "line2": "2 66329  42.9944  42.3497 0004007  64.2756 295.8518 15.50727196  5400"}}, "geometry": {"type": "Point", "coordinates": [25.11583320290921, -11.599344120442153]}}, {"type": "Feature", "properties": {"norad_id": 66330, "name": "STARLINK-35512", "group": "last-30-days", "lat": -40.64251750009429, "lon": -74.84867166031962, "alt_km": 446.43223515589216, "timestamp": "2025-12-03T15:48:01.917277+00:00", "meta": {"OBJECT_NAME": "STARLINK-35512", "OBJECT_ID": "2025-253M", "EPOCH": "2025-12-03T08:00:01.999872", "MEAN_MOTION": 15.40668129, "ECCENTRICITY": 0.00016957, "INCLINATION": 43.0006, "RA_OF_ASC_NODE": 39.9303, "ARG_OF_PERICENTER": 286.9548, "MEAN_ANOMALY": 321.1234, "EPHEMERIS_TYPE": 0, "CLASSIFICATION_TYPE": "U", "NORAD_CAT_ID": 66330, "ELEMENT_SET_NO": 999, "REV_AT_EPOCH": 541, "BSTAR": 0.00064698194, "MEAN_MOTION_DOT": 0.00026789, "MEAN_MOTION_DDOT": 0}, "tle": {"line1": "1 66330U 25253M   25337.33335648  .00026789  00000+0  64698-3 0  9997", "line2": "2 66330  43.0006  39.9303 0001695 286.9548 321.1234 15.40668129  5411"}}, "geometry": {"type": "Point", "coordinates": [-74.84867166031962, -40.64251750009429]}}, {"type": "Feature", "properties": {"norad_id": 66331, "name": "STARLINK-35257", "group": "last-30-days", "lat": 4.714214268967609, "lon": 42.85433289876671, "alt_km": 413.69265292546424, "timestamp": "2025-12-03T15:48:01.917289+00:00", "meta": {"OBJECT_NAME": "STARLINK-35257", "OBJECT_ID": "2025-253N", "EPOCH": "2025-12-03T04:56:59.008128", "MEAN_MOTION": 15.50615479, "ECCENTRICITY": 7.535e-05, "INCLINATION": 42.9973, "RA_OF_ASC_NODE": 40.4224, "ARG_OF_PERICENTER": 282.3913, "MEAN_ANOMALY": 77.6863, "EPHEMERIS_TYPE": 0, "CLASSIFICATION_TYPE": "U", "NORAD_CAT_ID": 66331, "ELEMENT_SET_NO": 999, "REV_AT_EPOCH": 545, "BSTAR": 0.0019143377, "MEAN_MOTION_DOT": 0.00113757, "MEAN_MOTION_DDOT": 0}, "tle": {"line1": "1 66331U 25253N   25337.20623852  .00113757  00000+0  19143-2 0  9997", "line2": "2 66331  42.9973  40.4224 0000753 282.3913  77.6863 15.50615479  5458"}}, "geometry": {"type": "Point", "coordinates": [42.85433289876671, 4.714214268967609]}}, {"type": "Feature", "properties": {"norad_id": 66332, "name": "STARLINK-35322", "group": "last-30-days", "lat": -1.089211578113242, "lon": 36.62557223141587, "alt_km": 413.6720929328385, "timestamp": "2025-12-03T15:48:01.917300+00:00", "meta": {"OBJECT_NAME": "STARLINK-35322", "OBJECT_ID": "2025-253P", "EPOCH": "2025-12-02T05:48:04.239936", "MEAN_MOTION": 15.50671276, "ECCENTRICITY": 9.86e-05, "INCLINATION": 43.0002, "RA_OF_ASC_NODE": 46.0856, "ARG_OF_PERICENTER": 282.8379, "MEAN_ANOMALY": 77.2371, "EPHEMERIS_TYPE": 0, "CLASSIFICATION_TYPE": "U", "NORAD_CAT_ID": 66332, "ELEMENT_SET_NO": 999, "REV_AT_EPOCH": 530, "BSTAR": 0.001523, "MEAN_MOTION_DOT": 0.00090339, "MEAN_MOTION_DDOT": 0}, "tle": {"line1": "1 66332U 25253P   25336.24171574  .00090339  00000+0  15230-2 0  9993", "line2": "2 66332  43.0002  46.0856 0000986 282.8379  77.2371 15.50671276  5307"}}, "geometry": {"type": "Point", "coordinates": [36.62557223141587, -1.089211578113242]}}, {"type": "Feature", "properties": {"norad_id": 66333, "name": "STARLINK-35400", "group": "last-30-days", "lat": 3.408287803542147, "lon": 41.44535882730863, "alt_km": 414.0069098004142, "timestamp": "2025-12-03T15:48:01.917313+00:00", "meta": {"OBJECT_NAME": "STARLINK-35400", "OBJECT_ID": "2025-253Q", "EPOCH": "2025-12-03T04:57:28.693440", "MEAN_MOTION": 15.5061405, "ECCENTRICITY": 7.589e-05, "INCLINATION": 42.9978, "RA_OF_ASC_NODE": 40.4243, "ARG_OF_PERICENTER": 264.7764, "MEAN_ANOMALY": 95.3009, "EPHEMERIS_TYPE": 0, "CLASSIFICATION_TYPE": "U", "NORAD_CAT_ID": 66333, "ELEMENT_SET_NO": 999, "REV_AT_EPOCH": 545, "BSTAR": 0.0019637117, "MEAN_MOTION_DOT": 0.00116738, "MEAN_MOTION_DDOT": 0}, "tle": {"line1": "1 66333U 25253Q   25337.20658210  .00116738  00000+0  19637-2 0  9995", "line2": "2 66333  42.9978  40.4243 0000758 264.7764  95.3009 15.50614050  5452"}}, "geometry": {"type": "Point", "coordinates": [41.44535882730863, 3.408287803542147]}}, {"type": "Feature", "properties": {"norad_id": 66334, "name": "STARLINK-35407", "group": "last-30-days", "lat": -0.5765019959557739, "lon": 37.174696197251635, "alt_km": 413.1543369981282, "timestamp": "2025-12-03T15:48:01.917326+00:00", "meta": {"OBJECT_NAME": "STARLINK-35407", "OBJECT_ID": "2025-253R", "EPOCH": "2025-12-02T05:47:54.704832", "MEAN_MOTION": 15.50606846, "ECCENTRICITY": 0.000182, "INCLINATION": 43.0002, "RA_OF_ASC_NODE": 46.0853, "ARG_OF_PERICENTER": 277.7851, "MEAN_ANOMALY": 82.2803, "EPHEMERIS_TYPE": 0, "CLASSIFICATION_TYPE": "U", "NORAD_CAT_ID": 66334, "ELEMENT_SET_NO": 999, "REV_AT_EPOCH": 530, "BSTAR": 0.0026112, "MEAN_MOTION_DOT": 0.00156096, "MEAN_MOTION_DDOT": 0}, "tle": {"line1": "1 66334U 25253R   25336.24160538  .00156096  00000+0  26112-2 0  9997", "line2": "2 66334  43.0002  46.0853 0001820 277.7851  82.2803 15.50606846  5309"}}, "geometry": {"type": "Point", "coordinates": [37.174696197251635, -0.5765019959557739]}}]}